      2.10          N: GNSS NAV DATA                        RINEX VERSION / TYPE
fic2rin                                 11/24/2021 00:17:30 PGM / RUN BY / DATE
                                                            END OF HEADER
27 21 11 23 12  0  0.0-2.226512879133e-04-4.547473508865e-12 0.000000000000e+00
    8.200000000000e+01 7.162500000000e+01 4.308036589873e-09 2.190357312603e-01
    3.777444362640e-06 9.707912686281e-03 2.780929207802e-06 5.153649152756e+03
    2.160000000000e+05 2.607703208923e-08-1.467902735630e+00 1.285225152969e-07
    9.740605700582e-01 3.333437500000e+02 6.275921105534e-01-8.284630802412e-09
    1.307197307158e-10 1.000000000000e+00 2.185000000000e+03 0.000000000000e+00
    3.400000000000e+00 0.000000000000e+00 1.862645149231e-09 8.200000000000e+01
    2.088000000000e+05 4.000000000000e+00
15 21 11 23 12  0  0.0-1.043658703566e-04 2.842170943040e-12 0.000000000000e+00
    8.500000000000e+01 3.156250000000e+00 5.577375177206e-09-6.919287051279e-01
    3.390014171600e-07 1.389691454824e-02 6.919726729393e-06 5.153696317673e+03
    2.160000000000e+05-7.450580596924e-08 1.552105235459e+00 2.626329660416e-07
    9.291203381629e-01 2.289687500000e+02 1.056733305230e+00-8.585000456871e-09
    3.100129132822e-10 1.000000000000e+00 2.185000000000e+03 0.000000000000e+00
    2.400000000000e+00 0.000000000000e+00-1.071020960808e-08 8.500000000000e+01
    2.088000000000e+05 4.000000000000e+00
22 21 11 23 12  0  0.0-4.580356180668e-04 9.094947017729e-12 0.000000000000e+00
    8.200000000000e+01-7.684375000000e+01 4.946634618616e-09-8.962860971593e-01
   -3.976747393608e-06 6.751294364221e-03 8.719041943550e-06 5.153679115295e+03
    2.160000000000e+05-5.774199962616e-08 5.212468256225e-01-8.195638656616e-08
    9.374794666970e-01 1.998437500000e+02-8.736812069577e-01-8.221056725725e-09
    3.110843864848e-10 1.000000000000e+00 2.185000000000e+03 0.000000000000e+00
    3.400000000000e+00 0.000000000000e+00-1.769512891769e-08 8.200000000000e+01
    2.088000000000e+05 4.000000000000e+00
25 21 11 23 12  0  0.0 2.450193278491e-04 5.911715561524e-12 0.000000000000e+00
    5.600000000000e+01 1.001250000000e+02 4.084098690532e-09 2.756835243585e+00
    5.068257451057e-06 1.006712985691e-02 9.391456842422e-06 5.153756698608e+03
    2.160000000000e+05 4.470348358154e-08-2.519092018751e+00-1.247972249985e-07
    9.590826807976e-01 1.954062500000e+02 9.643968331248e-01-7.601030899161e-09
   -1.678641350722e-10 1.000000000000e+00 2.185000000000e+03 0.000000000000e+00
    2.400000000000e+00 0.000000000000e+00 5.587935447693e-09 5.600000000000e+01
    2.088000000000e+05 4.000000000000e+00
17 21 11 23 12  0  0.0 5.377233028412e-04 5.456968210638e-12 0.000000000000e+00
    4.500000000000e+01 5.412500000000e+01 4.163387707524e-09 2.481142446228e-01
    2.717599272728e-06 1.377787336241e-02 2.956017851830e-06 5.153707464218e+03
    2.160000000000e+05-2.086162567139e-07-1.405960142123e+00-6.705522537231e-08
    9.804102811321e-01 3.321250000000e+02-1.533933658517e+00-8.298202796312e-09
    9.714690370133e-11 1.000000000000e+00 2.185000000000e+03 0.000000000000e+00
    2.400000000000e+00 0.000000000000e+00-1.117587089539e-08 4.500000000000e+01
    2.088000000000e+05 4.000000000000e+00
13 21 11 23 12  0  0.0 2.188794314861e-04 5.684341886081e-12 0.000000000000e+00
    1.500000000000e+02 1.562500000000e-01 4.723768192477e-09-3.257707726774e-01
    5.029141902924e-08 5.719928885810e-03 6.198883056641e-06 5.153670038223e+03
    2.160000000000e+05-3.352761268616e-08 1.807550575120e+00 6.332993507385e-08
    9.679209749823e-01 2.613750000000e+02 9.779915640628e-01-8.047478066906e-09
    1.417916204758e-10 1.000000000000e+00 2.185000000000e+03 0.000000000000e+00
    2.400000000000e+00 0.000000000000e+00-1.117587089539e-08 1.500000000000e+02
    2.088000000000e+05 4.000000000000e+00
26 21 11 23 12  0  0.0 1.581641845405e-04 3.751665644813e-12 0.000000000000e+00
    1.730000000000e+02 8.625000000000e+01 4.686266630387e-09 2.107829638925e+00
    4.502013325691e-06 6.484270561486e-03 9.540468454361e-06 5.153665155411e+03
    2.160000000000e+05-1.080334186554e-07-2.564511681085e+00 3.539025783539e-08
    9.399741296955e-01 1.852500000000e+02 3.146449544539e-01-8.029620180196e-09
   -2.757257707994e-10 1.000000000000e+00 2.185000000000e+03 0.000000000000e+00
    2.400000000000e+00 0.000000000000e+00 6.984919309616e-09 1.730000000000e+02
    2.088000000000e+05 4.000000000000e+00
23 21 11 23 12  0  0.0 2.970220521092e-05-4.320099833421e-12 0.000000000000e+00
    1.160000000000e+02-8.415625000000e+01 4.191603168525e-09-2.539255487395e+00
   -4.248693585396e-06 1.889076898806e-03 9.829178452492e-06 5.153693199158e+03
    2.160000000000e+05-4.284083843231e-08 5.997833866770e-01 7.450580596924e-09
    9.664797914770e-01 1.936250000000e+02 2.802115981367e+00-7.706392430749e-09
    2.846547141543e-10 1.000000000000e+00 2.185000000000e+03 0.000000000000e+00
    2.400000000000e+00 0.000000000000e+00-8.381903171539e-09 6.280000000000e+02
    2.088000000000e+05 4.000000000000e+00
18 21 11 23 12  0  0.0 2.911291085184e-04-6.025402399246e-12 0.000000000000e+00
    9.100000000000e+01-9.712500000000e+01 4.358752988129e-09-1.780452542698e+00
   -5.159527063370e-06 2.077401033603e-03 3.637745976448e-06 5.153641395569e+03
    2.160000000000e+05-1.117587089539e-08-3.992535749711e-01 1.862645149231e-09
    9.701774061603e-01 3.173437500000e+02 3.062667077748e+00-8.127481399366e-09
   -6.678849629467e-11 1.000000000000e+00 2.185000000000e+03 0.000000000000e+00
    2.400000000000e+00 0.000000000000e+00-8.381903171539e-09 3.470000000000e+02
    2.088000000000e+05 4.000000000000e+00
11 21 11 23 12  0  0.0 1.807045191526e-05-2.046363078989e-12 0.000000000000e+00
    1.910000000000e+02-9.571875000000e+01 4.581619414267e-09 4.667078118194e-01
   -4.911795258522e-06 3.815878881142e-04 4.220753908157e-06 5.153736894608e+03
    2.160000000000e+05-2.980232238770e-08-3.626055723661e-01-2.607703208923e-08
    9.614821136808e-01 2.984687500000e+02 2.571940674601e+00-8.159982753178e-09
   -8.464638300447e-11 1.000000000000e+00 2.185000000000e+03 0.000000000000e+00
    6.144000000000e+03 6.300000000000e+01-8.847564458847e-09 9.590000000000e+02
    2.088000000000e+05 4.000000000000e+00
28 21 11 23 12  0  0.0 4.571848548949e-04-7.503331289627e-12 0.000000000000e+00
    3.200000000000e+01 8.150000000000e+01 4.121957410357e-09 7.041880376297e-01
    4.161149263382e-06 1.729991426691e-02 8.665025234222e-06 5.153715425491e+03
    2.160000000000e+05-1.452863216400e-07-2.421247105632e+00-2.235174179077e-07
    9.707340757478e-01 2.215312500000e+02-1.310622373620e+00-8.045335120501e-09
   -1.239337337660e-10 1.000000000000e+00 2.185000000000e+03 0.000000000000e+00
    4.850000000000e+00 6.300000000000e+01-1.117587089539e-08 3.200000000000e+01
    2.088000000000e+05 4.000000000000e+00
27 21 11 23 11 59 44.0-2.226517535746e-04-4.547473508865e-12 0.000000000000e+00
    5.000000000000e+00 7.162500000000e+01 4.307679432139e-09 2.167015167280e-01
    3.777444362640e-06 9.707917459309e-03 2.780929207802e-06 5.153649154663e+03
    2.159840000000e+05 2.607703208923e-08-1.467902599578e+00 1.285225152969e-07
    9.740605598178e-01 3.333437500000e+02 6.275925377254e-01-8.284630802412e-09
    1.310768884500e-10 1.000000000000e+00 2.185000000000e+03 0.000000000000e+00
    2.400000000000e+00 0.000000000000e+00 1.862645149231e-09 5.000000000000e+00
    2.095800000000e+05 4.000000000000e+00
15 21 11 23 11 59 44.0-1.043654046953e-04 2.842170943040e-12 0.000000000000e+00
    5.000000000000e+00 3.156250000000e+00 5.577375177206e-09-6.942625597823e-01
    3.371387720108e-07 1.389691408258e-02 6.919726729393e-06 5.153696319580e+03
    2.159840000000e+05-7.450580596924e-08 1.552105393454e+00 2.626329660416e-07
    9.291203191450e-01 2.289687500000e+02 1.056733371061e+00-8.585000456871e-09
    3.100129132822e-10 1.000000000000e+00 2.185000000000e+03 0.000000000000e+00
    2.400000000000e+00 0.000000000000e+00-1.071020960808e-08 5.000000000000e+00
    2.097000000000e+05 4.000000000000e+00
14 21 11 23 12 44 32.0-4.334654659033e-05-6.707523425575e-12 0.000000000000e+00
    8.000000000000e+00 8.943750000000e+01 4.333037631267e-09-2.967141235034e+00
    4.731118679047e-06 1.199997728691e-03 8.780509233475e-06 5.153648323059e+03
    2.186720000000e+05 0.000000000000e+00-2.473387612579e+00 5.587935447693e-09
    9.550819202299e-01 2.071250000000e+02 3.099010370610e+00-7.865684780200e-09
   -1.050043738536e-10 1.000000000000e+00 2.185000000000e+03 0.000000000000e+00
    2.400000000000e+00 0.000000000000e+00-7.916241884232e-09 8.000000000000e+00
    2.115000000000e+05 4.000000000000e+00
15 21 11 23 13 59 44.0-1.043449155986e-04 2.842170943040e-12 0.000000000000e+00
    6.000000000000e+00 5.531250000000e+00 5.597018852587e-09 3.559124237182e-01
    5.289912223816e-07 1.389729138464e-02 7.050111889839e-06 5.153697040558e+03
    2.231840000000e+05-1.806765794754e-07 1.552043466669e+00 1.359730958939e-07
    9.291224710975e-01 2.275625000000e+02 1.056733003868e+00-8.604286974518e-09
    2.682254583813e-10 1.000000000000e+00 2.185000000000e+03 0.000000000000e+00
    2.400000000000e+00 0.000000000000e+00-1.071020960808e-08 6.000000000000e+00
    2.160000000000e+05 4.000000000000e+00
27 21 11 23 13 59 44.0-2.226848155260e-04-4.547473508865e-12 0.000000000000e+00
    3.100000000000e+01 8.275000000000e+01 4.239105147173e-09 1.266868647284e+00
    4.241243004799e-06 9.709085104987e-03 2.905726432800e-06 5.153651119232e+03
    2.231840000000e+05-6.891787052155e-08-1.467961719024e+00 8.195638656616e-08
    9.740612430006e-01 3.300312500000e+02 6.276178637632e-01-8.251772290866e-09
    6.071681481333e-11 1.000000000000e+00 2.185000000000e+03 0.000000000000e+00
    2.400000000000e+00 0.000000000000e+00 1.862645149231e-09 3.100000000000e+01
    2.160000000000e+05 4.000000000000e+00
